[{"OBJECT_NAME":"HYPSO-2","OBJECT_ID":"2024-149BR","EPOCH":"2026-03-09T15:24:17.277696","MEAN_MOTION":14.98259029,"ECCENTRICITY":0.00013898,"INCLINATION":97.6894,"RA_OF_ASC_NODE":146.3679,"ARG_OF_PERICENTER":74.8032,"MEAN_ANOMALY":285.3344,"EPHEMERIS_TYPE":0,"CLASSIFICATION_TYPE":"U","NORAD_CAT_ID":60531,"ELEMENT_SET_NO":999,"REV_AT_EPOCH":8514,"BSTAR":0.00033979817,"MEAN_MOTION_DOT":3.981e-5,"MEAN_MOTION_DDOT":0},{"OBJECT_NAME":"STARLINK-36158","OBJECT_ID":"2025-298F","EPOCH":"2026-03-09T21:39:48.216096","MEAN_MOTION":14.98330434,"ECCENTRICITY":0.00024965,"INCLINATION":70.0011,"RA_OF_ASC_NODE":13.7454,"ARG_OF_PERICENTER":273.3529,"MEAN_ANOMALY":86.7344,"EPHEMERIS_TYPE":0,"CLASSIFICATION_TYPE":"U","NORAD_CAT_ID":67080,"ELEMENT_SET_NO":999,"REV_AT_EPOCH":1325,"BSTAR":0.00042338517,"MEAN_MOTION_DOT":4.962e-5,"MEAN_MOTION_DDOT":0}]
